SENTINEL-2A             
1 40697U 15028A   26188.49440324  .00000170  00000+0  81435-4 0  9999
2 40697  98.5673 263.0578 0001227  95.1450 264.9873 14.30821664576634
SENTINEL-2B             
1 42063U 17013A   26188.48721119  .00000211  00000+0  96998-4 0  9993
2 42063  98.5681 262.9752 0001192  89.5708 270.5612 14.30814220487543
SENTINEL-2C             
1 60989U 24157A   26188.17254307  .00000080  00000+0  47103-4 0  9991
2 60989  98.5685 262.6713 0000939  95.7763 264.3527 14.30814111 95849
