{"fetched_at":"2026-07-07T18:29:46.995Z","source":"https://celestrak.org/NORAD/elements/gp.php?NAME=SENTINEL&FORMAT=JSON","constellation":"sentinel-2","records":[{"OBJECT_NAME":"SENTINEL-2A","OBJECT_ID":"2015-028A","EPOCH":"2026-07-07T11:51:56.439936","CLASSIFICATION_TYPE":"U","MEAN_MOTION":14.30821664,"ECCENTRICITY":0.0001227,"INCLINATION":98.5673,"RA_OF_ASC_NODE":263.0578,"ARG_OF_PERICENTER":95.145,"MEAN_ANOMALY":264.9873,"EPHEMERIS_TYPE":0,"NORAD_CAT_ID":40697,"ELEMENT_SET_NO":999,"REV_AT_EPOCH":57663,"BSTAR":0.000081435,"MEAN_MOTION_DOT":0.0000017,"MEAN_MOTION_DDOT":0},{"OBJECT_NAME":"SENTINEL-2B","OBJECT_ID":"2017-013A","EPOCH":"2026-07-07T11:41:35.046816","CLASSIFICATION_TYPE":"U","MEAN_MOTION":14.3081422,"ECCENTRICITY":0.0001192,"INCLINATION":98.5681,"RA_OF_ASC_NODE":262.9752,"ARG_OF_PERICENTER":89.5708,"MEAN_ANOMALY":270.5612,"EPHEMERIS_TYPE":0,"NORAD_CAT_ID":42063,"ELEMENT_SET_NO":999,"REV_AT_EPOCH":48754,"BSTAR":0.000096998,"MEAN_MOTION_DOT":0.00000211,"MEAN_MOTION_DDOT":0},{"OBJECT_NAME":"SENTINEL-2C","OBJECT_ID":"2024-157A","EPOCH":"2026-07-07T04:08:27.721248","CLASSIFICATION_TYPE":"U","MEAN_MOTION":14.30814111,"ECCENTRICITY":0.0000939,"INCLINATION":98.5685,"RA_OF_ASC_NODE":262.6713,"ARG_OF_PERICENTER":95.7763,"MEAN_ANOMALY":264.3527,"EPHEMERIS_TYPE":0,"NORAD_CAT_ID":60989,"ELEMENT_SET_NO":999,"REV_AT_EPOCH":9584,"BSTAR":0.000047103,"MEAN_MOTION_DOT":8e-7,"MEAN_MOTION_DDOT":0}]}
